[{"OBJECT_NAME":"ION SCV-004","OBJECT_ID":"2022-002K","EPOCH":"2026-03-09T16:32:03.244416","MEAN_MOTION":15.29369331,"ECCENTRICITY":0.00072157,"INCLINATION":97.2961,"RA_OF_ASC_NODE":128.2294,"ARG_OF_PERICENTER":1.6783,"MEAN_ANOMALY":358.448,"EPHEMERIS_TYPE":0,"CLASSIFICATION_TYPE":"U","NORAD_CAT_ID":50993,"ELEMENT_SET_NO":999,"REV_AT_EPOCH":23008,"BSTAR":0.00023198467,"MEAN_MOTION_DOT":6.538e-5,"MEAN_MOTION_DDOT":0},{"OBJECT_NAME":"STARLINK-34527","OBJECT_ID":"2025-133L","EPOCH":"2026-03-09T13:29:45.387168","MEAN_MOTION":15.30198726,"ECCENTRICITY":0.0001222,"INCLINATION":53.1573,"RA_OF_ASC_NODE":117.0528,"ARG_OF_PERICENTER":81.4464,"MEAN_ANOMALY":278.6675,"EPHEMERIS_TYPE":0,"CLASSIFICATION_TYPE":"U","NORAD_CAT_ID":64482,"ELEMENT_SET_NO":999,"REV_AT_EPOCH":4117,"BSTAR":0.00091272,"MEAN_MOTION_DOT":0.00026769,"MEAN_MOTION_DDOT":0}]
