ION SCV-004             
1 50993U 22002K   26068.68892644  .00006538  00000+0  23198-3 0  9998
2 50993  97.2961 128.2294 0007216   1.6783 358.4480 15.29369331230088
STARLINK-34527          
1 64482U 25133L   26068.56233087  .00026769  00000+0  91272-3 0  9997
2 64482  53.1573 117.0528 0001222  81.4464 278.6675 15.30198726 41174
